[
    {
        "Altitude(m)": 612502.1870086617,
        "Argument of Periapsis(deg)": 0.0,
        "Eccentricity": 0.0,
        "Inclination(deg)": 60.0,
        "Latitude(deg)": -28.135948556464403,
        "Longitude(deg)": 102.14824192908613,
        "Mean Anomaly(deg)": -32.72730000000001,
        "RAAN(deg)": 220.00000000000003,
        "Satellite Name": "Test1 988",
        "Satellite Number": 988,
        "Semi-Major Axis(m)": 6980739.136638005,
        "Time(s)": 0
    },
    {
        "Altitude(m)": 612308.6350159438,
        "Argument of Periapsis(deg)": 0.00010418945913296404,
        "Eccentricity": 0.0,
        "Inclination(deg)": 60.0,
        "Latitude(deg)": -27.623003946502642,
        "Longitude(deg)": 102.50171615958764,
        "Mean Anomaly(deg)": -32.10719385453816,
        "RAAN(deg)": 219.99957995086027,
        "Satellite Name": "Test1 988",
        "Satellite Number": 988,
        "Semi-Major Axis(m)": 6980739.136638005,
        "Time(s)": 10
    }
]